STARLINK-32608          
1 62124U 24222L   26068.18745894  .00034607  00000+0  12608-2 0  9993
2 62124  43.0006 138.8927 0001275 238.5627 121.5100 15.27590701 72664
HAWK-11B                
1 62379U 24247C   26068.44730104  .00009093  00000+0  32842-3 0  9993
2 62379  45.0161 115.7610 0004690 333.0326  27.0314 15.28847070 67738
